{
  "norad_id": 63974,
  "name": "STARLINK-33942",
  "history": [
    {
      "epoch": "2026-03-28T15:32:37.619232Z",
      "apogee_km": 483.91236869466866,
      "perigee_km": 482.1325839265128,
      "latitude_deg": -3.718884582930393e-06,
      "longitude_deg": 6.6388529166698875,
      "height_km": 482.69155878044387,
      "semi_major_axis_km": 6861.15947631059,
      "eccentricity": 0.0001297,
      "inclination_deg": 43.0007,
      "raan_deg": 65.8607,
      "arg_perigee_deg": 276.946,
      "mean_anomaly_deg": 83.1244,
      "mean_motion_rev_day": 15.2758889
    },
    {
      "epoch": "2026-03-29T05:40:01.927488Z",
      "apogee_km": 483.2747821092107,
      "perigee_km": 482.64081694973356,
      "latitude_deg": -4.8788897159037796e-05,
      "longitude_deg": 150.88269222543562,
      "height_km": 482.74955744554023,
      "semi_major_axis_km": 6861.094799529472,
      "eccentricity": 4.62e-05,
      "inclination_deg": 42.9984,
      "raan_deg": 62.5359,
      "arg_perigee_deg": 267.0938,
      "mean_anomaly_deg": 92.986,
      "mean_motion_rev_day": 15.2761049
    },
    {
      "epoch": "2026-03-29T22:55:45.077376Z",
      "apogee_km": 483.69976693306944,
      "perigee_km": 482.33055540778605,
      "latitude_deg": 9.04126463306213e-06,
      "longitude_deg": -112.81836151148552,
      "height_km": 482.98300187059334,
      "semi_major_axis_km": 6861.1521611704275,
      "eccentricity": 9.978e-05,
      "inclination_deg": 43.0003,
      "raan_deg": 58.4735,
      "arg_perigee_deg": 253.7551,
      "mean_anomaly_deg": 106.3191,
      "mean_motion_rev_day": 15.27591333
    }
  ]
}